<?xml version="1.0" encoding="UTF-8"?>
<kml xmlns="http://www.opengis.net/kml/2.2">
<Document>

        <Placemark>
            <name>VLG6152</name>
            <TimeStamp>
                <when>2026-05-14T04:04:24Z</when>
            </TimeStamp>
            <Point>
                <coordinates>2.1136241787446646,41.29516173547804</coordinates>
            </Point>
        </Placemark>
        

        <Placemark>
            <name>VLG9YD</name>
            <TimeStamp>
                <when>2026-05-14T04:06:14Z</when>
            </TimeStamp>
            <Point>
                <coordinates>2.1138765132661526,41.29459673146482</coordinates>
            </Point>
        </Placemark>
        

        <Placemark>
            <name>RYR28RR</name>
            <TimeStamp>
                <when>2026-05-14T04:08:04Z</when>
            </TimeStamp>
            <Point>
                <coordinates>2.1138507951408325,41.29466147854542</coordinates>
            </Point>
        </Placemark>
        

        <Placemark>
            <name>RYR91MD</name>
            <TimeStamp>
                <when>2026-05-14T04:09:41Z</when>
            </TimeStamp>
            <Point>
                <coordinates>2.1137442637519053,41.29490981156962</coordinates>
            </Point>
        </Placemark>
        

        <Placemark>
            <name>RYR699N</name>
            <TimeStamp>
                <when>2026-05-14T04:11:14Z</when>
            </TimeStamp>
            <Point>
                <coordinates>2.113885435824728,41.294573943438934</coordinates>
            </Point>
        </Placemark>
        

        <Placemark>
            <name>VLG53PC</name>
            <TimeStamp>
                <when>2026-05-14T04:12:33Z</when>
            </TimeStamp>
            <Point>
                <coordinates>2.11380114301607,41.29478042875088</coordinates>
            </Point>
        </Placemark>
        

        <Placemark>
            <name>SWR7YT</name>
            <TimeStamp>
                <when>2026-05-14T04:14:12Z</when>
            </TimeStamp>
            <Point>
                <coordinates>2.1142357544230843,41.293336649813156</coordinates>
            </Point>
        </Placemark>
        

        <Placemark>
            <name>RYR32FE</name>
            <TimeStamp>
                <when>2026-05-14T04:15:53Z</when>
            </TimeStamp>
            <Point>
                <coordinates>2.1139103504919836,41.294509689546224</coordinates>
            </Point>
        </Placemark>
        

        <Placemark>
            <name>RYR57ZC</name>
            <TimeStamp>
                <when>2026-05-14T04:17:27Z</when>
            </TimeStamp>
            <Point>
                <coordinates>2.113883318768531,41.294579675196694</coordinates>
            </Point>
        </Placemark>
        

        <Placemark>
            <name>VLG1510</name>
            <TimeStamp>
                <when>2026-05-14T04:18:48Z</when>
            </TimeStamp>
            <Point>
                <coordinates>2.1141178754249865,41.293865288838184</coordinates>
            </Point>
        </Placemark>
        

        <Placemark>
            <name>VLG8FU</name>
            <TimeStamp>
                <when>2026-05-14T04:21:44Z</when>
            </TimeStamp>
            <Point>
                <coordinates>2.113771663075436,41.29484818722071</coordinates>
            </Point>
        </Placemark>
        

        <Placemark>
            <name>RYR73JP</name>
            <TimeStamp>
                <when>2026-05-14T04:23:24Z</when>
            </TimeStamp>
            <Point>
                <coordinates>2.1138856535306894,41.29457392261955</coordinates>
            </Point>
        </Placemark>
        

        <Placemark>
            <name>ITY075</name>
            <TimeStamp>
                <when>2026-05-14T04:25:10Z</when>
            </TimeStamp>
            <Point>
                <coordinates>2.114191465469913,41.29356030317647</coordinates>
            </Point>
        </Placemark>
        

        <Placemark>
            <name>RYR2A</name>
            <TimeStamp>
                <when>2026-05-14T04:26:38Z</when>
            </TimeStamp>
            <Point>
                <coordinates>2.1138472817589404,41.29467004493544</coordinates>
            </Point>
        </Placemark>
        

        <Placemark>
            <name>TVF32ER</name>
            <TimeStamp>
                <when>2026-05-14T04:28:13Z</when>
            </TimeStamp>
            <Point>
                <coordinates>2.1141387682310064,41.29378513623908</coordinates>
            </Point>
        </Placemark>
        

        <Placemark>
            <name>VLG911N</name>
            <TimeStamp>
                <when>2026-05-14T04:29:55Z</when>
            </TimeStamp>
            <Point>
                <coordinates>2.113679787664439,41.29504842887825</coordinates>
            </Point>
        </Placemark>
        

        <Placemark>
            <name>TAP1041</name>
            <TimeStamp>
                <when>2026-05-14T04:31:20Z</when>
            </TimeStamp>
            <Point>
                <coordinates>2.1141301171400255,41.293818290342784</coordinates>
            </Point>
        </Placemark>
        

        <Placemark>
            <name>RYR2VR</name>
            <TimeStamp>
                <when>2026-05-14T04:33:00Z</when>
            </TimeStamp>
            <Point>
                <coordinates>2.113616418511608,41.29517763720554</coordinates>
            </Point>
        </Placemark>
        

        <Placemark>
            <name>RYR81RY</name>
            <TimeStamp>
                <when>2026-05-14T04:35:04Z</when>
            </TimeStamp>
            <Point>
                <coordinates>2.1140075710906205,41.29423525010754</coordinates>
            </Point>
        </Placemark>
        

        <Placemark>
            <name>KLM73T</name>
            <TimeStamp>
                <when>2026-05-14T04:36:24Z</when>
            </TimeStamp>
            <Point>
                <coordinates>2.1136929867353844,41.2950207285985</coordinates>
            </Point>
        </Placemark>
        

        <Placemark>
            <name>AFR32SN</name>
            <TimeStamp>
                <when>2026-05-14T04:38:13Z</when>
            </TimeStamp>
            <Point>
                <coordinates>2.1138739152253825,41.29460261236159</coordinates>
            </Point>
        </Placemark>
        

        <Placemark>
            <name>VLG8SJ</name>
            <TimeStamp>
                <when>2026-05-14T04:40:33Z</when>
            </TimeStamp>
            <Point>
                <coordinates>2.1137745164225787,41.29484172346631</coordinates>
            </Point>
        </Placemark>
        

        <Placemark>
            <name>EJU73YK</name>
            <TimeStamp>
                <when>2026-05-14T04:45:34Z</when>
            </TimeStamp>
            <Point>
                <coordinates>2.1135877502527136,41.2952335896915</coordinates>
            </Point>
        </Placemark>
        

        <Placemark>
            <name>UPS242</name>
            <TimeStamp>
                <when>2026-05-14T04:49:39Z</when>
            </TimeStamp>
            <Point>
                <coordinates>2.1143224887979337,41.29262021546376</coordinates>
            </Point>
        </Placemark>
        

        <Placemark>
            <name>VLG365N</name>
            <TimeStamp>
                <when>2026-05-14T04:52:06Z</when>
            </TimeStamp>
            <Point>
                <coordinates>2.1136488407349328,41.29511241023919</coordinates>
            </Point>
        </Placemark>
        

        <Placemark>
            <name>VLG1265</name>
            <TimeStamp>
                <when>2026-05-14T05:06:37Z</when>
            </TimeStamp>
            <Point>
                <coordinates>2.0645000629348074,41.27852847890697</coordinates>
            </Point>
        </Placemark>
        

        <Placemark>
            <name>VLG73QE</name>
            <TimeStamp>
                <when>2026-05-14T05:09:36Z</when>
            </TimeStamp>
            <Point>
                <coordinates>2.065124016639703,41.277720966911616</coordinates>
            </Point>
        </Placemark>
        

        <Placemark>
            <name>VLG4SW</name>
            <TimeStamp>
                <when>2026-05-14T05:14:09Z</when>
            </TimeStamp>
            <Point>
                <coordinates>2.0645608873554275,41.278439905893265</coordinates>
            </Point>
        </Placemark>
        

        <Placemark>
            <name>VLG4VF</name>
            <TimeStamp>
                <when>2026-05-14T05:15:42Z</when>
            </TimeStamp>
            <Point>
                <coordinates>2.0657952454259174,41.27703177696718</coordinates>
            </Point>
        </Placemark>
        

        <Placemark>
            <name>DLH03K</name>
            <TimeStamp>
                <when>2026-05-14T05:17:21Z</when>
            </TimeStamp>
            <Point>
                <coordinates>2.0680330633749704,41.27546938013999</coordinates>
            </Point>
        </Placemark>
        

        <Placemark>
            <name>VLG593U</name>
            <TimeStamp>
                <when>2026-05-14T05:18:45Z</when>
            </TimeStamp>
            <Point>
                <coordinates>2.0646999130111308,41.278245968737295</coordinates>
            </Point>
        </Placemark>
        

        <Placemark>
            <name>VLG38HJ</name>
            <TimeStamp>
                <when>2026-05-14T05:20:04Z</when>
            </TimeStamp>
            <Point>
                <coordinates>2.0656183315693033,41.277199610551094</coordinates>
            </Point>
        </Placemark>
        

        <Placemark>
            <name>IBE04RC</name>
            <TimeStamp>
                <when>2026-05-14T05:21:12Z</when>
            </TimeStamp>
            <Point>
                <coordinates>2.065052343296309,41.27780440198743</coordinates>
            </Point>
        </Placemark>
        

        <Placemark>
            <name>EJU14CG</name>
            <TimeStamp>
                <when>2026-05-14T05:22:22Z</when>
            </TimeStamp>
            <Point>
                <coordinates>2.065394178090115,41.27742484482829</coordinates>
            </Point>
        </Placemark>
        

        <Placemark>
            <name>VLG23TK</name>
            <TimeStamp>
                <when>2026-05-14T05:23:52Z</when>
            </TimeStamp>
            <Point>
                <coordinates>2.065164453389082,41.27767449231986</coordinates>
            </Point>
        </Placemark>
        

        <Placemark>
            <name>VLG7830</name>
            <TimeStamp>
                <when>2026-05-14T05:25:19Z</when>
            </TimeStamp>
            <Point>
                <coordinates>2.0647144822510275,41.278226566744124</coordinates>
            </Point>
        </Placemark>
        

        <Placemark>
            <name>VLG6UW</name>
            <TimeStamp>
                <when>2026-05-14T05:26:29Z</when>
            </TimeStamp>
            <Point>
                <coordinates>2.064563323911574,41.2784363515473</coordinates>
            </Point>
        </Placemark>
        

        <Placemark>
            <name>VLG3BV</name>
            <TimeStamp>
                <when>2026-05-14T05:28:07Z</when>
            </TimeStamp>
            <Point>
                <coordinates>2.0647563359580134,41.27817097468558</coordinates>
            </Point>
        </Placemark>
        

        <Placemark>
            <name>VLG2472</name>
            <TimeStamp>
                <when>2026-05-14T05:29:22Z</when>
            </TimeStamp>
            <Point>
                <coordinates>2.064413523267889,41.278659952465304</coordinates>
            </Point>
        </Placemark>
        

        <Placemark>
            <name>VLG3LK</name>
            <TimeStamp>
                <when>2026-05-14T05:31:00Z</when>
            </TimeStamp>
            <Point>
                <coordinates>2.0647481416317284,41.27818151902075</coordinates>
            </Point>
        </Placemark>
        

        <Placemark>
            <name>VLG55PB</name>
            <TimeStamp>
                <when>2026-05-14T05:32:42Z</when>
            </TimeStamp>
            <Point>
                <coordinates>2.065782842149087,41.2770442501421</coordinates>
            </Point>
        </Placemark>
        

        <Placemark>
            <name>VLG56ND</name>
            <TimeStamp>
                <when>2026-05-14T05:33:57Z</when>
            </TimeStamp>
            <Point>
                <coordinates>2.064766575186207,41.27815785542706</coordinates>
            </Point>
        </Placemark>
        

        <Placemark>
            <name>VLG1PT</name>
            <TimeStamp>
                <when>2026-05-14T05:35:10Z</when>
            </TimeStamp>
            <Point>
                <coordinates>2.0655429696821312,41.277274332462156</coordinates>
            </Point>
        </Placemark>
        

        <Placemark>
            <name>VLG11TT</name>
            <TimeStamp>
                <when>2026-05-14T05:36:25Z</when>
            </TimeStamp>
            <Point>
                <coordinates>2.0647475787018306,41.278182459142926</coordinates>
            </Point>
        </Placemark>
        

        <Placemark>
            <name>VLG15SY</name>
            <TimeStamp>
                <when>2026-05-14T05:38:02Z</when>
            </TimeStamp>
            <Point>
                <coordinates>2.0645622432778183,41.27843795477768</coordinates>
            </Point>
        </Placemark>
        

        <Placemark>
            <name>VLG7EY</name>
            <TimeStamp>
                <when>2026-05-14T05:39:37Z</when>
            </TimeStamp>
            <Point>
                <coordinates>2.064686944353827,41.27826508451413</coordinates>
            </Point>
        </Placemark>
        

        <Placemark>
            <name>VLG76GZ</name>
            <TimeStamp>
                <when>2026-05-14T05:40:58Z</when>
            </TimeStamp>
            <Point>
                <coordinates>2.0662461897674604,41.27664178132019</coordinates>
            </Point>
        </Placemark>
        

        <Placemark>
            <name>VLG68LT</name>
            <TimeStamp>
                <when>2026-05-14T05:42:31Z</when>
            </TimeStamp>
            <Point>
                <coordinates>2.0652712942886913,41.27755595523367</coordinates>
            </Point>
        </Placemark>
        

        <Placemark>
            <name>VLG5YL</name>
            <TimeStamp>
                <when>2026-05-14T05:43:42Z</when>
            </TimeStamp>
            <Point>
                <coordinates>2.0650389018126742,41.277818890022715</coordinates>
            </Point>
        </Placemark>
        

        <Placemark>
            <name>RYR2SY</name>
            <TimeStamp>
                <when>2026-05-14T05:44:53Z</when>
            </TimeStamp>
            <Point>
                <coordinates>2.0661183105877896,41.27674745510892</coordinates>
            </Point>
        </Placemark>
        

        <Placemark>
            <name>VLG2QW</name>
            <TimeStamp>
                <when>2026-05-14T05:46:06Z</when>
            </TimeStamp>
            <Point>
                <coordinates>2.064463704382993,41.27858292080938</coordinates>
            </Point>
        </Placemark>
        

        <Placemark>
            <name>VLG3TC</name>
            <TimeStamp>
                <when>2026-05-14T05:47:21Z</when>
            </TimeStamp>
            <Point>
                <coordinates>2.0654036665048605,41.27741608337575</coordinates>
            </Point>
        </Placemark>
        

        <Placemark>
            <name>VLG84ZE</name>
            <TimeStamp>
                <when>2026-05-14T05:48:53Z</when>
            </TimeStamp>
            <Point>
                <coordinates>2.0646040653116193,41.278378285345916</coordinates>
            </Point>
        </Placemark>
        

        <Placemark>
            <name>VLG1YW</name>
            <TimeStamp>
                <when>2026-05-14T05:50:09Z</when>
            </TimeStamp>
            <Point>
                <coordinates>2.065142730159411,41.27769914303869</coordinates>
            </Point>
        </Placemark>
        

        <Placemark>
            <name>VLG6FZ</name>
            <TimeStamp>
                <when>2026-05-14T05:51:52Z</when>
            </TimeStamp>
            <Point>
                <coordinates>2.064612725264884,41.278366286144866</coordinates>
            </Point>
        </Placemark>
        

        <Placemark>
            <name>VLG9VG</name>
            <TimeStamp>
                <when>2026-05-14T05:52:53Z</when>
            </TimeStamp>
            <Point>
                <coordinates>2.0659068615157117,41.276930447779115</coordinates>
            </Point>
        </Placemark>
        

        <Placemark>
            <name>VLG94PH</name>
            <TimeStamp>
                <when>2026-05-14T05:54:19Z</when>
            </TimeStamp>
            <Point>
                <coordinates>2.066980312533574,41.2760974722304</coordinates>
            </Point>
        </Placemark>
        

        <Placemark>
            <name>VLG44WK</name>
            <TimeStamp>
                <when>2026-05-14T05:55:37Z</when>
            </TimeStamp>
            <Point>
                <coordinates>2.0651218619415173,41.27772223286235</coordinates>
            </Point>
        </Placemark>
        

        <Placemark>
            <name>VLG2GP</name>
            <TimeStamp>
                <when>2026-05-14T05:56:46Z</when>
            </TimeStamp>
            <Point>
                <coordinates>2.064875830455849,41.27801695239403</coordinates>
            </Point>
        </Placemark>
        

        <Placemark>
            <name>VLG73LA</name>
            <TimeStamp>
                <when>2026-05-14T05:58:19Z</when>
            </TimeStamp>
            <Point>
                <coordinates>2.0679212485128704,41.27552908244206</coordinates>
            </Point>
        </Placemark>
        

        <Placemark>
            <name>EJU86XG</name>
            <TimeStamp>
                <when>2026-05-14T05:59:34Z</when>
            </TimeStamp>
            <Point>
                <coordinates>2.0655779199957394,41.27723898330289</coordinates>
            </Point>
        </Placemark>
        

        <Placemark>
            <name>BAW47C</name>
            <TimeStamp>
                <when>2026-05-14T06:00:39Z</when>
            </TimeStamp>
            <Point>
                <coordinates>2.064986259853354,41.27788130494361</coordinates>
            </Point>
        </Placemark>
        

        <Placemark>
            <name>VLG5RP</name>
            <TimeStamp>
                <when>2026-05-14T06:02:19Z</when>
            </TimeStamp>
            <Point>
                <coordinates>2.0654529441128293,41.2773657045206</coordinates>
            </Point>
        </Placemark>
        

        <Placemark>
            <name>VLG6LC</name>
            <TimeStamp>
                <when>2026-05-14T06:03:35Z</when>
            </TimeStamp>
            <Point>
                <coordinates>2.065013215014686,41.277849978515206</coordinates>
            </Point>
        </Placemark>
        

        <Placemark>
            <name>VLG91MM</name>
            <TimeStamp>
                <when>2026-05-14T06:04:49Z</when>
            </TimeStamp>
            <Point>
                <coordinates>2.065156124657707,41.277683656056425</coordinates>
            </Point>
        </Placemark>
        

        <Placemark>
            <name>DLH98Y</name>
            <TimeStamp>
                <when>2026-05-14T06:05:56Z</when>
            </TimeStamp>
            <Point>
                <coordinates>2.0647984042417304,41.27811675879792</coordinates>
            </Point>
        </Placemark>
        

        <Placemark>
            <name>DLH97F</name>
            <TimeStamp>
                <when>2026-05-14T06:07:21Z</when>
            </TimeStamp>
            <Point>
                <coordinates>2.065810404503219,41.2770178982035</coordinates>
            </Point>
        </Placemark>
        

        <Placemark>
            <name>THY1852</name>
            <TimeStamp>
                <when>2026-05-14T06:08:45Z</when>
            </TimeStamp>
            <Point>
                <coordinates>2.064597197786969,41.27838786376969</coordinates>
            </Point>
        </Placemark>
        

        <Placemark>
            <name>VLG700D</name>
            <TimeStamp>
                <when>2026-05-14T06:10:42Z</when>
            </TimeStamp>
            <Point>
                <coordinates>2.0661411562945395,41.27672801402127</coordinates>
            </Point>
        </Placemark>
        

        <Placemark>
            <name>VLG6ZP</name>
            <TimeStamp>
                <when>2026-05-14T06:12:24Z</when>
            </TimeStamp>
            <Point>
                <coordinates>2.0661172492108886,41.27674904901332</coordinates>
            </Point>
        </Placemark>
        

        <Placemark>
            <name>NSZ3DA</name>
            <TimeStamp>
                <when>2026-05-14T06:13:32Z</when>
            </TimeStamp>
            <Point>
                <coordinates>2.0646846168325346,41.2782666637702</coordinates>
            </Point>
        </Placemark>
        

        <Placemark>
            <name>VLG8VX</name>
            <TimeStamp>
                <when>2026-05-14T06:14:56Z</when>
            </TimeStamp>
            <Point>
                <coordinates>2.064862526057868,41.27803373651673</coordinates>
            </Point>
        </Placemark>
        

        <Placemark>
            <name>IBE04GZ</name>
            <TimeStamp>
                <when>2026-05-14T06:16:03Z</when>
            </TimeStamp>
            <Point>
                <coordinates>2.064998567162465,41.277867295943096</coordinates>
            </Point>
        </Placemark>
        

        <Placemark>
            <name>NSZ5528</name>
            <TimeStamp>
                <when>2026-05-14T06:17:21Z</when>
            </TimeStamp>
            <Point>
                <coordinates>2.064740489041821,41.27819163011296</coordinates>
            </Point>
        </Placemark>
        

        <Placemark>
            <name>VLG5WG</name>
            <TimeStamp>
                <when>2026-05-14T06:20:29Z</when>
            </TimeStamp>
            <Point>
                <coordinates>2.066236082498219,41.27665062390626</coordinates>
            </Point>
        </Placemark>
        

        <Placemark>
            <name>VLG45PN</name>
            <TimeStamp>
                <when>2026-05-14T06:21:58Z</when>
            </TimeStamp>
            <Point>
                <coordinates>2.0646027500269435,41.278380220954155</coordinates>
            </Point>
        </Placemark>
        

        <Placemark>
            <name>VLG65MT</name>
            <TimeStamp>
                <when>2026-05-14T06:23:23Z</when>
            </TimeStamp>
            <Point>
                <coordinates>2.0647540533739766,41.27817385448092</coordinates>
            </Point>
        </Placemark>
        

        <Placemark>
            <name>IBE2601</name>
            <TimeStamp>
                <when>2026-05-14T06:25:42Z</when>
            </TimeStamp>
            <Point>
                <coordinates>2.064654262643895,41.278308576422006</coordinates>
            </Point>
        </Placemark>
        

        <Placemark>
            <name>VLG93DX</name>
            <TimeStamp>
                <when>2026-05-14T06:28:02Z</when>
            </TimeStamp>
            <Point>
                <coordinates>2.0644550643047563,41.27859636869662</coordinates>
            </Point>
        </Placemark>
        

        <Placemark>
            <name>SWT7TN</name>
            <TimeStamp>
                <when>2026-05-14T06:29:31Z</when>
            </TimeStamp>
            <Point>
                <coordinates>2.069132290953606,41.2749611642983</coordinates>
            </Point>
        </Placemark>
        

        <Placemark>
            <name>EJU37TW</name>
            <TimeStamp>
                <when>2026-05-14T06:31:34Z</when>
            </TimeStamp>
            <Point>
                <coordinates>2.064674166555538,41.278280927691384</coordinates>
            </Point>
        </Placemark>
        

        <Placemark>
            <name>VLG92CD</name>
            <TimeStamp>
                <when>2026-05-14T06:33:27Z</when>
            </TimeStamp>
            <Point>
                <coordinates>2.0648375847329223,41.27806535871398</coordinates>
            </Point>
        </Placemark>
        

        <Placemark>
            <name>VLG2974</name>
            <TimeStamp>
                <when>2026-05-14T06:34:43Z</when>
            </TimeStamp>
            <Point>
                <coordinates>2.066247260020447,41.27664069150076</coordinates>
            </Point>
        </Placemark>
        

        <Placemark>
            <name>TVF32PR</name>
            <TimeStamp>
                <when>2026-05-14T06:44:18Z</when>
            </TimeStamp>
            <Point>
                <coordinates>2.064655204979251,41.27830688932194</coordinates>
            </Point>
        </Placemark>
        

        <Placemark>
            <name>VLG21PG</name>
            <TimeStamp>
                <when>2026-05-14T06:46:25Z</when>
            </TimeStamp>
            <Point>
                <coordinates>2.065267166619828,41.277561079898845</coordinates>
            </Point>
        </Placemark>
        

        <Placemark>
            <name>AEA38LZ</name>
            <TimeStamp>
                <when>2026-05-14T06:48:54Z</when>
            </TimeStamp>
            <Point>
                <coordinates>2.0647368187734862,41.27819645302246</coordinates>
            </Point>
        </Placemark>
        

        <Placemark>
            <name>RYR2889</name>
            <TimeStamp>
                <when>2026-05-14T06:51:00Z</when>
            </TimeStamp>
            <Point>
                <coordinates>2.065116888601195,41.27772817160645</coordinates>
            </Point>
        </Placemark>
        

        <Placemark>
            <name>VLG200Z</name>
            <TimeStamp>
                <when>2026-05-14T06:52:53Z</when>
            </TimeStamp>
            <Point>
                <coordinates>2.0645320662210156,41.27848153347583</coordinates>
            </Point>
        </Placemark>
        

        <Placemark>
            <name>VLG57RJ</name>
            <TimeStamp>
                <when>2026-05-14T06:54:05Z</when>
            </TimeStamp>
            <Point>
                <coordinates>2.06506503024066,41.27778851970966</coordinates>
            </Point>
        </Placemark>
        

        <Placemark>
            <name>RYR63PB</name>
            <TimeStamp>
                <when>2026-05-14T06:55:34Z</when>
            </TimeStamp>
            <Point>
                <coordinates>2.0647266887032427,41.278209998665325</coordinates>
            </Point>
        </Placemark>
        

        <Placemark>
            <name>EWG81R</name>
            <TimeStamp>
                <when>2026-05-14T06:57:11Z</when>
            </TimeStamp>
            <Point>
                <coordinates>2.065357052666337,41.27746554778049</coordinates>
            </Point>
        </Placemark>
        

        <Placemark>
            <name>RYR4WX</name>
            <TimeStamp>
                <when>2026-05-14T07:04:11Z</when>
            </TimeStamp>
            <Point>
                <coordinates>2.0644043664580023,41.27867371233167</coordinates>
            </Point>
        </Placemark>
        

        <Placemark>
            <name>VLG5FN</name>
            <TimeStamp>
                <when>2026-05-14T07:05:51Z</when>
            </TimeStamp>
            <Point>
                <coordinates>2.06467347536357,41.27828242529952</coordinates>
            </Point>
        </Placemark>
        

        <Placemark>
            <name>VLG6VG</name>
            <TimeStamp>
                <when>2026-05-14T07:07:30Z</when>
            </TimeStamp>
            <Point>
                <coordinates>2.0646800122722593,41.27827345313623</coordinates>
            </Point>
        </Placemark>
        

        <Placemark>
            <name>IBE04YC</name>
            <TimeStamp>
                <when>2026-05-14T07:11:54Z</when>
            </TimeStamp>
            <Point>
                <coordinates>2.0676240770410037,41.27569505066423</coordinates>
            </Point>
        </Placemark>
        

        <Placemark>
            <name>VLG8QR</name>
            <TimeStamp>
                <when>2026-05-14T07:13:32Z</when>
            </TimeStamp>
            <Point>
                <coordinates>2.064697164552488,41.278249704938446</coordinates>
            </Point>
        </Placemark>
        

        <Placemark>
            <name>VLG9FC</name>
            <TimeStamp>
                <when>2026-05-14T07:14:44Z</when>
            </TimeStamp>
            <Point>
                <coordinates>2.064512019643013,41.27851088426865</coordinates>
            </Point>
        </Placemark>
        

        <Placemark>
            <name>WMT182</name>
            <TimeStamp>
                <when>2026-05-14T07:16:25Z</when>
            </TimeStamp>
            <Point>
                <coordinates>2.064369122429508,41.278729072265754</coordinates>
            </Point>
        </Placemark>
        

        <Placemark>
            <name>NJE838T</name>
            <TimeStamp>
                <when>2026-05-14T07:17:54Z</when>
            </TimeStamp>
            <Point>
                <coordinates>2.0681948592353305,41.27538618973072</coordinates>
            </Point>
        </Placemark>
        

        <Placemark>
            <name>TRA3T</name>
            <TimeStamp>
                <when>2026-05-14T07:22:46Z</when>
            </TimeStamp>
            <Point>
                <coordinates>2.0652351385003618,41.27759523763568</coordinates>
            </Point>
        </Placemark>
        

        <Placemark>
            <name>QTR138</name>
            <TimeStamp>
                <when>2026-05-14T07:24:13Z</when>
            </TimeStamp>
            <Point>
                <coordinates>2.06447290636951,41.278568960368304</coordinates>
            </Point>
        </Placemark>
        

        <Placemark>
            <name>BTX6F</name>
            <TimeStamp>
                <when>2026-05-14T07:26:56Z</when>
            </TimeStamp>
            <Point>
                <coordinates>2.0708319923619345,41.27440754811795</coordinates>
            </Point>
        </Placemark>
        

        <Placemark>
            <name>RYR23VU</name>
            <TimeStamp>
                <when>2026-05-14T07:28:39Z</when>
            </TimeStamp>
            <Point>
                <coordinates>2.0644268144840243,41.2786389989271</coordinates>
            </Point>
        </Placemark>
        

        <Placemark>
            <name>RYR98RR</name>
            <TimeStamp>
                <when>2026-05-14T07:30:01Z</when>
            </TimeStamp>
            <Point>
                <coordinates>2.065043285320098,41.27781447089722</coordinates>
            </Point>
        </Placemark>
        

        <Placemark>
            <name>LHX06E</name>
            <TimeStamp>
                <when>2026-05-14T07:31:34Z</when>
            </TimeStamp>
            <Point>
                <coordinates>2.0664729427733595,41.27646273377053</coordinates>
            </Point>
        </Placemark>
        

        <Placemark>
            <name>ANE53GX</name>
            <TimeStamp>
                <when>2026-05-14T07:32:56Z</when>
            </TimeStamp>
            <Point>
                <coordinates>2.0644008940449443,41.278679481147954</coordinates>
            </Point>
        </Placemark>
        

        <Placemark>
            <name>VLG7CV</name>
            <TimeStamp>
                <when>2026-05-14T07:34:55Z</when>
            </TimeStamp>
            <Point>
                <coordinates>2.0648083049542607,41.2781030846629</coordinates>
            </Point>
        </Placemark>
        

        <Placemark>
            <name>RYR26UP</name>
            <TimeStamp>
                <when>2026-05-14T07:38:06Z</when>
            </TimeStamp>
            <Point>
                <coordinates>2.0650232117551703,41.27783812278498</coordinates>
            </Point>
        </Placemark>
        

        <Placemark>
            <name>RYR97BB</name>
            <TimeStamp>
                <when>2026-05-14T07:39:40Z</when>
            </TimeStamp>
            <Point>
                <coordinates>2.064725712249988,41.278211598443576</coordinates>
            </Point>
        </Placemark>
        

        <Placemark>
            <name>KLM1498</name>
            <TimeStamp>
                <when>2026-05-14T07:41:12Z</when>
            </TimeStamp>
            <Point>
                <coordinates>2.0643258590091658,41.27879852738239</coordinates>
            </Point>
        </Placemark>
        

        <Placemark>
            <name>WMT95Z</name>
            <TimeStamp>
                <when>2026-05-14T07:42:45Z</when>
            </TimeStamp>
            <Point>
                <coordinates>2.0646019242416775,41.27838132116044</coordinates>
            </Point>
        </Placemark>
        

        <Placemark>
            <name>IBE04LK</name>
            <TimeStamp>
                <when>2026-05-14T07:44:47Z</when>
            </TimeStamp>
            <Point>
                <coordinates>2.066947035858693,41.27612079700473</coordinates>
            </Point>
        </Placemark>
        

        <Placemark>
            <name>DAL251</name>
            <TimeStamp>
                <when>2026-05-14T07:46:31Z</when>
            </TimeStamp>
            <Point>
                <coordinates>2.06451357773419,41.278508719017154</coordinates>
            </Point>
        </Placemark>
        

        <Placemark>
            <name>WZZ17JZ</name>
            <TimeStamp>
                <when>2026-05-14T07:51:03Z</when>
            </TimeStamp>
            <Point>
                <coordinates>2.0644069068322755,41.2786697623114</coordinates>
            </Point>
        </Placemark>
        

        <Placemark>
            <name>WZZ521</name>
            <TimeStamp>
                <when>2026-05-14T07:52:27Z</when>
            </TimeStamp>
            <Point>
                <coordinates>2.0646157467781885,41.278362305699645</coordinates>
            </Point>
        </Placemark>
        

        <Placemark>
            <name>AEA68NT</name>
            <TimeStamp>
                <when>2026-05-14T07:54:10Z</when>
            </TimeStamp>
            <Point>
                <coordinates>2.0647682427691363,41.278155779182086</coordinates>
            </Point>
        </Placemark>
        

        <Placemark>
            <name>RYR2VW</name>
            <TimeStamp>
                <when>2026-05-14T07:55:33Z</when>
            </TimeStamp>
            <Point>
                <coordinates>2.064306632693111,41.278829863690056</coordinates>
            </Point>
        </Placemark>
        

        <Placemark>
            <name>VLG7KT</name>
            <TimeStamp>
                <when>2026-05-14T07:59:59Z</when>
            </TimeStamp>
            <Point>
                <coordinates>2.064440130120886,41.2786186662852</coordinates>
            </Point>
        </Placemark>
        

    <Placemark>
        <name>Círculo TWR 06</name>
        <Style>
            <LineStyle>
                <color>ff0000ff</color> <!-- rojo -->
                <width>2</width>
            </LineStyle>
        </Style>
        <LineString>
            <tessellate>1</tessellate>
            <coordinates>
                2.1032805555555556,41.300552777777774,0 2.1042472078866856,41.30052106692854,0 2.1052065034098946,41.300426175719544,0 2.1061511413070133,41.30026882633018,0 2.1070739323132566,41.300050216284326,0 2.10796785343187,41.299772009336415,0 2.108826101383377,41.29943632280931,0 2.109642144382642,41.29904571148018,0 2.1104097718497004,41.2986031481371,0 2.1111231416760217,41.298112000954326,0 2.111776824686484,41.297576007858495,0 2.1123658459586716,41.2969992480807,0 2.1128857226850433,41.29638611111111,0 2.1133324982898016,41.29574126329228,0 2.113702772540823,41.29506961230549,0 2.11399372742748,41.2943762698203,0 2.1142031486074013,41.29366651259166,0 2.1143294422589562,41.292945742300674,0 2.1143716472111977,41.29221944444444,0 2.1143294422589562,41.29149314658821,0 2.1142031486074013,41.29077237629722,0 2.11399372742748,41.290062619068586,0 2.113702772540823,41.28936927658339,0 2.1133324982898016,41.288697625596605,0 2.1128857226850433,41.28805277777777,0 2.1123658459586716,41.28743964080818,0 2.111776824686484,41.28686288103039,0 2.1111231416760217,41.28632688793456,0 2.1104097718497004,41.285835740751786,0 2.109642144382642,41.2853931774087,0 2.108826101383377,41.28500256607957,0 2.10796785343187,41.28466687955247,0 2.1070739323132566,41.28438867260456,0 2.1061511413070133,41.2841700625587,0 2.1052065034098946,41.28401271316934,0 2.1042472078866856,41.283917821960344,0 2.1032805555555556,41.28388611111111,0 2.1023139032244256,41.283917821960344,0 2.1013546077012166,41.28401271316934,0 2.100409969804098,41.2841700625587,0 2.0994871787978546,41.28438867260456,0 2.098593257679241,41.28466687955247,0 2.0977350097277343,41.28500256607957,0 2.0969189667284693,41.2853931774087,0 2.096151339261411,41.285835740751786,0 2.0954379694350895,41.28632688793456,0 2.0947842864246273,41.28686288103039,0 2.0941952651524396,41.28743964080818,0 2.093675388426068,41.28805277777777,0 2.0932286128213096,41.288697625596605,0 2.0928583385702884,41.28936927658339,0 2.0925673836836314,41.290062619068586,0 2.09235796250371,41.29077237629722,0 2.092231668852155,41.29149314658821,0 2.0921894638999134,41.29221944444444,0 2.092231668852155,41.292945742300674,0 2.09235796250371,41.29366651259166,0 2.0925673836836314,41.2943762698203,0 2.0928583385702884,41.29506961230549,0 2.0932286128213096,41.29574126329228,0 2.093675388426068,41.29638611111111,0 2.0941952651524396,41.2969992480807,0 2.0947842864246273,41.297576007858495,0 2.0954379694350895,41.298112000954326,0 2.096151339261411,41.2986031481371,0 2.0969189667284693,41.29904571148018,0 2.0977350097277343,41.29943632280931,0 2.098593257679241,41.299772009336415,0 2.0994871787978546,41.300050216284326,0 2.100409969804098,41.30026882633018,0 2.1013546077012166,41.300426175719544,0 2.1023139032244256,41.30052106692854,0 2.1032805555555556,41.300552777777774,0
            </coordinates>
        </LineString>
    </Placemark>
    

    <Placemark>
        <name>Círculo TWR 24</name>
        <Style>
            <LineStyle>
                <color>ff0000ff</color> <!-- rojo -->
                <width>2</width>
            </LineStyle>
        </Style>
        <LineString>
            <tessellate>1</tessellate>
            <coordinates>
                2.0743500000000004,41.290644444444446,0 2.0753165055490626,41.29061273359521,0 2.0762756554073043,41.290517842386215,0 2.077220149865154,41.290360492996854,0 2.078142800749486,41.290141882951,0 2.0790365861299587,41.28986367600309,0 2.0798947037601443,41.289527989475985,0 2.080710622846732,41.289137378146854,0 2.0814781337528063,41.28869481480377,0 2.0821913952569373,41.288203667621,0 2.082844979008399,41.28766767452517,0 2.083433910840198,41.287090914747374,0 2.083953708625488,41.28647777777778,0 2.08440041638926,41.28583292995895,0 2.084770634415703,41.28516127897216,0 2.0850615451220906,41.28446793648697,0 2.085270934502292,41.283758179258335,0 2.08539720897669,41.283037408967346,0 2.0854394075202882,41.28231111111111,0 2.08539720897669,41.28158481325488,0 2.085270934502292,41.28086404296389,0 2.0850615451220906,41.28015428573526,0 2.084770634415703,41.279460943250065,0 2.08440041638926,41.278789292263276,0 2.083953708625488,41.27814444444444,0 2.083433910840198,41.27753130747485,0 2.082844979008399,41.27695454769706,0 2.0821913952569373,41.27641855460123,0 2.0814781337528063,41.27592740741846,0 2.080710622846732,41.27548484407537,0 2.0798947037601443,41.27509423274624,0 2.0790365861299587,41.27475854621914,0 2.078142800749486,41.27448033927123,0 2.077220149865154,41.27426172922537,0 2.0762756554073043,41.27410437983601,0 2.0753165055490626,41.274009488627016,0 2.0743500000000004,41.27397777777778,0 2.073383494450938,41.274009488627016,0 2.0724243445926964,41.27410437983601,0 2.0714798501348466,41.27426172922537,0 2.0705571992505147,41.27448033927123,0 2.069663413870042,41.27475854621914,0 2.0688052962398564,41.27509423274624,0 2.067989377153269,41.27548484407537,0 2.0672218662471944,41.27592740741846,0 2.0665086047430634,41.27641855460123,0 2.065855020991602,41.27695454769706,0 2.065266089159803,41.27753130747485,0 2.064746291374513,41.27814444444444,0 2.0642995836107407,41.278789292263276,0 2.063929365584298,41.279460943250065,0 2.06363845487791,41.28015428573526,0 2.0634290654977088,41.28086404296389,0 2.0633027910233106,41.28158481325488,0 2.0632605924797125,41.28231111111111,0 2.0633027910233106,41.283037408967346,0 2.0634290654977088,41.283758179258335,0 2.06363845487791,41.28446793648697,0 2.063929365584298,41.28516127897216,0 2.0642995836107407,41.28583292995895,0 2.064746291374513,41.28647777777778,0 2.065266089159803,41.287090914747374,0 2.065855020991602,41.28766767452517,0 2.0665086047430634,41.288203667621,0 2.0672218662471944,41.28869481480377,0 2.067989377153269,41.289137378146854,0 2.0688052962398564,41.289527989475985,0 2.069663413870042,41.28986367600309,0 2.0705571992505147,41.290141882951,0 2.0714798501348466,41.290360492996854,0 2.0724243445926964,41.290517842386215,0 2.073383494450938,41.29061273359521,0 2.0743500000000004,41.290644444444446,0
            </coordinates>
        </LineString>
    </Placemark>
    
</Document>
</kml>